{"type":"FeatureCollection","name":"Phường Đồ Sơn","features":[{"type":"Feature","properties":{"ma_xa":"11455","ten_xa":"Đồ Sơn","sap_nhap":"Hải Sơn, Tân Thành (1 phần), Vạn Hương (1 phần), Ngọc Xuyên (1 phần)","tru_so":"đang cập nhật","loai":"Phường","cap":2,"stt":19,"dtich_km2":25.54,"dan_so":36494,"matdo_km2":1428.9,"ma_tinh":"31","ten_tinh":"Hải Phòng"},"geometry":{"type":"MultiPolygon","coordinates":[[[[106.81529940000007,20.668591400000025],[106.81524680000007,20.66868000000005],[106.81518360000007,20.668768600000078],[106.81512050000003,20.66884730000004],[106.81501530000008,20.668857200000048],[106.81491010000008,20.668857200000048],[106.81479430000007,20.66884730000004],[106.81468910000007,20.668837500000052],[106.81458390000006,20.66880800000007],[106.81446810000006,20.668788300000074],[106.81438390000005,20.66872920000003],[106.81429980000007,20.668660300000056],[106.81424720000007,20.668660300000056],[106.81416300000006,20.66860120000007],[106.81405780000006,20.668581500000073],[106.81395250000008,20.668620900000064],[106.81389990000008,20.668709500000034],[106.81379470000007,20.668709500000034],[106.81373160000004,20.668630800000074],[106.81373160000004,20.668532300000038],[106.81374210000007,20.668424000000073],[106.81376310000007,20.66832560000006],[106.81379470000007,20.668227100000024],[106.81376310000007,20.668128700000068],[106.81365790000007,20.66811880000006],[106.81355270000006,20.668128700000068],[106.81345800000008,20.66820740000003],[106.81340540000008,20.668305900000064],[106.81330010000005,20.668335400000046],[106.81320540000007,20.668286200000068],[106.81320540000007,20.668187700000033],[106.81320540000007,20.668089300000076],[106.81319490000004,20.66799080000004],[106.81319490000004,20.667882500000076],[106.81319490000004,20.667764400000067],[106.81320540000007,20.667656100000045],[106.81320540000007,20.667557600000066],[106.81320540000007,20.667449300000044],[106.81320540000007,20.66735090000003],[106.81321600000007,20.667232700000056],[106.81326860000007,20.667114600000048],[106.81330010000005,20.667016200000035],[106.81334220000008,20.666917700000056],[106.81336330000005,20.666809400000034],[106.81340540000008,20.666711000000078],[106.81346850000006,20.666612500000042],[106.81353160000003,20.666523900000072],[106.81361580000004,20.666445100000033],[106.81373160000004,20.666386100000068],[106.81381570000008,20.666307300000028],[106.81387890000008,20.66621870000006],[106.81397360000005,20.666169500000024],[106.81412090000003,20.666100500000027],[106.81423660000007,20.66606120000006],[106.81434190000004,20.666011900000058],[106.81446810000006,20.665943000000027],[106.81457330000006,20.665874100000053],[106.81467860000004,20.665815000000066],[106.81479430000007,20.665785500000027],[106.81491010000008,20.665746100000035],[106.81501530000008,20.66572640000004],[106.81513100000006,20.665696900000057],[106.81528890000004,20.665647700000022],[106.81542570000005,20.665628000000027],[106.81553090000006,20.66559840000008],[106.81564660000004,20.665559100000053],[106.81577290000007,20.665539400000057],[106.81588860000005,20.665529500000048],[106.81600440000005,20.665509800000052],[106.81610960000006,20.665490100000056],[106.81623590000004,20.66547040000006],[106.81637270000004,20.665421200000026],[106.81650950000005,20.66536220000006],[106.81661470000006,20.665342500000065],[106.81671990000007,20.66531290000006],[106.81682510000007,20.66531290000006],[106.81695140000005,20.66531290000006],[106.81705660000006,20.66531290000006],[106.81716180000006,20.66532280000007],[106.81727760000007,20.66536220000006],[106.81740390000004,20.66541140000004],[106.81746700000008,20.665490100000056],[106.81756170000006,20.66556890000004],[106.81763530000006,20.665667400000075],[106.81770900000004,20.66576580000003],[106.81776160000004,20.665854400000057],[106.81778270000007,20.665962700000023],[106.81784580000004,20.66605130000005],[106.81788790000007,20.666149800000028],[106.81791940000005,20.66624820000004],[106.81794050000008,20.666346700000076],[106.81797210000008,20.66645500000004],[106.81802470000008,20.666563300000064],[106.81808780000006,20.666651900000033],[106.81815090000003,20.666760200000056],[106.81820350000004,20.666868500000078],[106.81824560000007,20.666966900000034],[106.81829830000004,20.667094900000052],[106.81834030000005,20.667203200000074],[106.81839300000007,20.66731150000004],[106.81840350000004,20.667410000000075],[106.81840350000004,20.66750840000003],[106.81840350000004,20.667606900000067],[106.81836140000007,20.667725000000075],[106.81832980000007,20.66783330000004],[106.81827720000007,20.667941600000063],[106.81823510000004,20.668040000000076],[106.81817200000006,20.66811880000006],[106.81810880000006,20.668197600000042],[106.81803520000005,20.668296000000055],[106.81796150000008,20.668384600000024],[106.81783530000007,20.668433900000025],[106.81770900000004,20.66847320000005],[106.81760380000009,20.668512600000042],[106.81748800000008,20.668542100000025],[106.81738280000008,20.668542100000025],[106.81727760000007,20.668542100000025],[106.81716180000006,20.66852250000005],[106.81705660000006,20.668502800000056],[106.81694090000008,20.668492900000047],[106.81681460000004,20.66848310000006],[106.81668830000007,20.668463400000064],[106.81658310000006,20.668463400000064],[106.81647790000005,20.668463400000064],[106.81637270000004,20.668463400000064],[106.81626740000007,20.668463400000064],[106.81615170000003,20.668463400000064],[106.81602540000006,20.668463400000064],[106.81590970000008,20.66847320000005],[106.81580450000007,20.66847320000005],[106.81569920000004,20.66848310000006],[106.81559400000003,20.668502800000056],[106.81548880000008,20.668512600000042],[106.81538360000008,20.66852250000005],[106.81529940000007,20.668591400000025]]],[[[106.77887200000004,20.747258000000045],[106.77884100000006,20.747294000000068],[106.77880700000009,20.747333000000026],[106.77872100000008,20.747433000000058],[106.77816800000005,20.748073000000034],[106.77749300000005,20.748887000000025],[106.77739200000008,20.74900800000006],[106.77684500000004,20.749658000000068],[106.77626100000003,20.75035900000006],[106.77571200000006,20.75102000000004],[106.77516800000006,20.75166500000006],[106.77497300000005,20.751892000000055],[106.77420300000006,20.75274200000007],[106.77406400000007,20.752658000000054],[106.77209600000003,20.751513000000045],[106.77199700000006,20.751455000000078],[106.77195100000006,20.751433000000077],[106.76972700000005,20.750147000000027],[106.76967100000007,20.750118000000043],[106.76961500000004,20.75008900000006],[106.76960800000006,20.750086000000067],[106.76780800000006,20.749028000000067],[106.76777700000008,20.749006000000065],[106.76775300000008,20.74898900000005],[106.76769200000007,20.748961000000065],[106.76624400000009,20.74813800000004],[106.76627500000006,20.74810300000007],[106.76594900000003,20.747918000000027],[106.76540400000005,20.74761200000006],[106.76490300000006,20.74733100000003],[106.76426300000008,20.746970000000033],[106.76308000000006,20.746283000000062],[106.76171900000008,20.745503000000042],[106.76061900000008,20.74485500000003],[106.75923300000005,20.744056000000057],[106.75806900000003,20.743408000000045],[106.75809700000008,20.743345000000033],[106.75778600000007,20.743165000000033],[106.75767100000007,20.74309900000003],[106.75754600000005,20.74301900000006],[106.75748700000008,20.742981000000043],[106.75739300000004,20.742921000000024],[106.75729300000006,20.74306000000007],[106.75744000000009,20.742654000000073],[106.75750200000004,20.742482000000052],[106.75757900000008,20.742267000000027],[106.75769700000006,20.741933000000074],[106.75775600000009,20.741707000000076],[106.75783700000005,20.741392000000076],[106.75789100000009,20.74114700000007],[106.75791000000004,20.740981000000033],[106.75799700000005,20.739690000000053],[106.75800900000007,20.73945100000003],[106.75804000000005,20.738845000000026],[106.75805200000008,20.73818200000005],[106.75805400000007,20.738063000000068],[106.75806000000006,20.738012000000026],[106.75812400000007,20.737518000000023],[106.75815700000004,20.737317000000075],[106.75822300000004,20.736921000000052],[106.75826600000005,20.736767000000043],[106.75838600000009,20.73633700000005],[106.75839400000007,20.73630600000007],[106.75867400000004,20.735461000000043],[106.75867700000003,20.73545400000006],[106.75914400000005,20.734141000000022],[106.75926300000003,20.733818000000042],[106.75957500000004,20.732966000000033],[106.75961600000005,20.73286500000006],[106.75979100000006,20.73248300000006],[106.75986200000006,20.732377000000042],[106.76007900000008,20.732052000000067],[106.76036900000008,20.73161300000004],[106.76056000000005,20.73132400000003],[106.76065400000005,20.731176000000062],[106.76062900000005,20.731160000000045],[106.76033400000006,20.73096400000003],[106.75991000000005,20.73070400000006],[106.75972800000005,20.730585000000076],[106.75913000000008,20.730184000000065],[106.75912900000009,20.730183000000068],[106.75875000000008,20.729907000000026],[106.75851700000004,20.729738000000054],[106.75822900000009,20.72952900000007],[106.75746300000009,20.72897000000006],[106.75742000000008,20.72892100000007],[106.75655700000004,20.728300000000047],[106.75651500000004,20.72827200000006],[106.75624200000004,20.72808100000003],[106.75610400000005,20.727985000000047],[106.75604300000003,20.72793000000007],[106.75598900000006,20.727882000000022],[106.75595800000008,20.727854000000036],[106.75603300000006,20.727778000000058],[106.75610000000006,20.727652000000035],[106.75611100000003,20.727618000000064],[106.75612600000005,20.727573000000064],[106.75611800000007,20.72751900000003],[106.75608600000004,20.727465000000052],[106.75605600000006,20.727412000000072],[106.75599700000004,20.727324000000067],[106.75588100000004,20.727149000000054],[106.75579900000008,20.726988000000063],[106.75576200000006,20.726879000000054],[106.75575600000008,20.726863000000037],[106.75568900000007,20.726583000000062],[106.75564800000006,20.726413000000036],[106.75601100000006,20.72630300000003],[106.75642600000003,20.726155000000063],[106.75648300000006,20.726126000000022],[106.75681500000007,20.725960000000043],[106.75711300000006,20.725813000000073],[106.75749600000006,20.72555600000004],[106.75778300000007,20.725343000000066],[106.75801300000006,20.725131000000033],[106.75804000000005,20.72510600000004],[106.75821000000008,20.724923000000047],[106.75839600000006,20.72468200000003],[106.75859100000008,20.72442200000006],[106.75882500000006,20.72406600000005],[106.75896000000006,20.723835000000065],[106.75905400000005,20.723628000000076],[106.75909500000006,20.72353000000004],[106.75921200000005,20.723244000000022],[106.75931600000007,20.72299400000003],[106.75942500000008,20.722731000000067],[106.75955300000004,20.722433000000024],[106.75971200000004,20.722121000000072],[106.75987200000009,20.721842000000038],[106.75998700000008,20.721659000000045],[106.76015100000006,20.721390000000042],[106.76039600000007,20.72101900000007],[106.76052300000003,20.720841000000064],[106.76055100000008,20.72080200000005],[106.76055800000006,20.720795000000066],[106.76086700000008,20.72044500000004],[106.76115800000008,20.720132000000035],[106.76145900000006,20.719794000000036],[106.76152900000005,20.71972500000004],[106.76163700000006,20.719773000000032],[106.76201700000007,20.71994200000006],[106.76272400000005,20.72025700000006],[106.76332700000006,20.72046000000006],[106.76351700000004,20.720522000000074],[106.76380000000006,20.720616000000064],[106.76414200000005,20.72073000000006],[106.76438000000007,20.720808000000034],[106.76500900000008,20.721018000000072],[106.76513600000004,20.721061000000077],[106.76543100000004,20.72115800000006],[106.76611700000007,20.721390000000042],[106.76699900000006,20.721682000000044],[106.76791200000008,20.721974000000046],[106.76857000000007,20.722196000000054],[106.76920700000005,20.722405000000037],[106.76999700000005,20.72265500000003],[106.77050800000006,20.72283600000003],[106.77091600000006,20.722969000000035],[106.77102500000007,20.72300400000006],[106.77107300000006,20.722960000000057],[106.77153400000009,20.72271900000004],[106.77225900000008,20.722358000000042],[106.77251200000006,20.722237000000064],[106.77285100000006,20.72207700000007],[106.77415500000006,20.721420000000023],[106.77486900000008,20.721061000000077],[106.77498800000006,20.721001000000058],[106.77564500000005,20.720673000000033],[106.77580900000004,20.720589000000075],[106.77574700000008,20.720448000000033],[106.77552300000008,20.720053000000064],[106.77523000000008,20.71936500000004],[106.77481900000004,20.718657000000064],[106.77481800000004,20.71865500000007],[106.77446400000008,20.718830000000025],[106.77424000000008,20.718917000000033],[106.77381000000008,20.71909900000003],[106.77322000000004,20.719355000000064],[106.77267100000006,20.719603000000063],[106.77261400000003,20.719626000000062],[106.77236400000004,20.719745000000046],[106.77233000000007,20.71967600000005],[106.77228900000006,20.719598000000076],[106.77225200000004,20.719550000000027],[106.77219800000006,20.719483000000025],[106.77212800000007,20.719423000000063],[106.77212400000008,20.71942000000007],[106.77207000000004,20.719380000000058],[106.77200900000008,20.719337000000053],[106.77191900000008,20.71927400000004],[106.77180400000009,20.719196000000068],[106.77168800000004,20.719118000000037],[106.77159600000005,20.719028000000037],[106.77154400000006,20.718967000000077],[106.77150000000006,20.718898000000024],[106.77145900000005,20.718822000000046],[106.77143500000005,20.718750000000057],[106.77141900000004,20.718674000000078],[106.77141300000005,20.718612000000064],[106.77141300000005,20.718552000000045],[106.77141900000004,20.718447000000026],[106.77142800000007,20.718354000000033],[106.77143000000007,20.718318000000068],[106.77143200000006,20.718282000000045],[106.77143900000004,20.71816700000005],[106.77143500000005,20.718053000000054],[106.77143600000005,20.717940000000056],[106.77144200000004,20.717840000000024],[106.77144400000009,20.717787000000044],[106.77179600000005,20.717824000000064],[106.77215600000005,20.71783700000003],[106.77215200000006,20.717742000000044],[106.77214800000007,20.717606000000046],[106.77213400000005,20.71714600000007],[106.77212400000008,20.716840000000047],[106.77209500000004,20.716795000000047],[106.77175800000003,20.716804000000025],[106.77150800000004,20.71683500000006],[106.77142400000008,20.71683900000005],[106.77117500000008,20.716781000000026],[106.77079400000008,20.71668500000004],[106.77042500000005,20.71658000000002],[106.77031300000004,20.716537000000073],[106.77016900000007,20.716482000000042],[106.77005700000007,20.716424000000075],[106.76983200000006,20.716308000000026],[106.76952600000004,20.71613700000006],[106.76950000000005,20.71612300000004],[106.76917400000008,20.71593800000005],[106.76884800000005,20.715767000000028],[106.76881500000007,20.715746000000024],[106.76867000000004,20.715656000000024],[106.76853900000003,20.715553000000057],[106.76846900000004,20.715467000000046],[106.76838800000007,20.715351000000055],[106.76837800000004,20.715272000000027],[106.76846200000006,20.71511400000003],[106.76848600000005,20.715080000000057],[106.76867000000004,20.714815000000044],[106.76885500000009,20.714575000000025],[106.76894700000008,20.71445600000004],[106.76933500000007,20.713970000000074],[106.76935600000007,20.713944000000026],[106.76957400000003,20.713596000000052],[106.76968700000003,20.713407000000075],[106.76972000000006,20.713316000000077],[106.76981200000006,20.71295800000007],[106.76985700000006,20.71264700000006],[106.76987900000006,20.712491000000057],[106.76989200000008,20.712091000000044],[106.76989500000008,20.71198000000004],[106.76991400000009,20.711771000000056],[106.76992100000007,20.71161600000005],[106.76996200000008,20.711355000000026],[106.77002700000008,20.711175000000026],[106.77012600000006,20.710950000000025],[106.77017000000006,20.710834000000034],[106.77029700000008,20.710587000000032],[106.77045400000009,20.710255000000075],[106.77049800000009,20.71018900000007],[106.77063300000003,20.710041000000047],[106.77078000000006,20.709936000000027],[106.77089300000006,20.709881000000053],[106.77111600000006,20.70976600000006],[106.77137000000005,20.709640000000036],[106.77156400000007,20.709572000000037],[106.77182100000005,20.709502000000043],[106.77220000000005,20.70944300000008],[106.77232600000008,20.709420000000023],[106.77247800000004,20.70938300000006],[106.77257100000008,20.709352000000024],[106.77296900000005,20.70924700000006],[106.77330500000005,20.709137000000055],[106.77367400000009,20.709016000000076],[106.77403600000008,20.708894000000043],[106.77439300000009,20.70875700000005],[106.77454000000006,20.708705000000066],[106.77476000000007,20.708586000000025],[106.77490300000005,20.70850900000005],[106.77507400000007,20.708416000000057],[106.77525800000006,20.70827900000006],[106.77536900000007,20.708196000000044],[106.77545300000008,20.70810000000006],[106.77560300000005,20.707846000000075],[106.77565500000009,20.707707000000028],[106.77577600000006,20.707198000000062],[106.77568000000008,20.70683500000007],[106.77567700000009,20.706529000000046],[106.77568500000007,20.706386000000066],[106.77565300000003,20.706271000000072],[106.77559900000006,20.706217000000038],[106.77571700000004,20.705952000000025],[106.77578500000004,20.705729000000076],[106.77582000000007,20.705587000000037],[106.77586500000007,20.705392000000074],[106.77587400000004,20.705288000000053],[106.77586700000006,20.705148000000065],[106.77581600000008,20.705024000000037],[106.77576000000005,20.704941000000076],[106.77553400000005,20.70468500000004],[106.77541900000006,20.70455000000004],[106.77534300000008,20.704458000000045],[106.77530300000006,20.704383000000064],[106.77529500000009,20.704342000000054],[106.77530100000007,20.70429400000006],[106.77531300000004,20.704251000000056],[106.77533900000009,20.704192000000035],[106.77536300000008,20.704152000000022],[106.77539300000007,20.704109000000074],[106.77541300000007,20.704084000000023],[106.77542500000004,20.70407300000005],[106.77542900000009,20.70406900000006],[106.77546800000005,20.704031000000043],[106.77539200000007,20.704041000000075],[106.77529000000004,20.704042000000072],[106.77519800000005,20.704029000000048],[106.77512700000005,20.703977000000066],[106.77510000000007,20.703886000000068],[106.77510400000006,20.703810000000033],[106.77513900000008,20.703733000000057],[106.77514900000006,20.703685000000064],[106.77512800000005,20.703613000000075],[106.77507600000007,20.703585000000032],[106.77500000000003,20.703557000000046],[106.77491300000008,20.70351100000005],[106.77480000000008,20.703434000000073],[106.77468700000009,20.703549000000066],[106.77454000000006,20.703701000000024],[106.77437100000009,20.70387900000003],[106.77415200000007,20.704099000000042],[106.77398400000004,20.704273000000057],[106.77379700000006,20.704455000000053],[106.77371900000009,20.704541000000063],[106.77365500000008,20.704643000000033],[106.77361200000007,20.704759000000024],[106.77358600000008,20.704837000000055],[106.77356700000007,20.70491000000004],[106.77355900000003,20.704979000000037],[106.77355400000005,20.705084000000056],[106.77357600000005,20.705231000000026],[106.77324600000009,20.70526300000006],[106.77288500000009,20.705228000000034],[106.77268600000008,20.705149000000063],[106.77232700000008,20.70492900000005],[106.77178900000007,20.70448200000004],[106.77159600000005,20.704260000000033],[106.77149400000008,20.704083000000026],[106.77140700000007,20.70393400000006],[106.77133800000007,20.703696000000036],[106.77127200000007,20.702826000000073],[106.77121600000004,20.70225400000004],[106.77115300000008,20.701602000000037],[106.77105200000005,20.700779000000068],[106.77083800000008,20.700064000000054],[106.77048600000006,20.69929300000007],[106.77021600000006,20.698773000000074],[106.76972300000006,20.697937000000024],[106.76896400000004,20.698186000000078],[106.76840700000008,20.698371000000066],[106.76803500000005,20.698560000000043],[106.76765700000004,20.698821000000066],[106.76741300000003,20.69912800000003],[106.76719500000007,20.699537000000078],[106.76709900000009,20.699974000000054],[106.76711100000006,20.700458000000026],[106.76720400000005,20.700863000000027],[106.76742600000006,20.70134500000006],[106.76765300000005,20.70175500000005],[106.76772500000004,20.701933000000054],[106.76772000000005,20.702094000000045],[106.76758300000006,20.702305000000024],[106.76728700000007,20.70262400000007],[106.76718900000009,20.70277500000003],[106.76720700000004,20.702961000000073],[106.76729100000006,20.703208000000075],[106.76641800000004,20.70353300000005],[106.76587800000004,20.70359600000006],[106.76557900000006,20.702738000000068],[106.76671700000009,20.70234700000003],[106.76637500000004,20.701776000000052],[106.76604800000007,20.701178000000027],[106.76546200000007,20.701234000000056],[106.76535500000006,20.700518000000045],[106.76592600000004,20.700455000000034],[106.76596100000006,20.69948500000004],[106.76597700000008,20.699039000000027],[106.76578600000005,20.698263000000054],[106.76553400000006,20.697050000000047],[106.76548300000007,20.696964000000037],[106.76537100000007,20.696946000000025],[106.76514800000007,20.697006000000044],[106.76445000000007,20.69731900000005],[106.76270900000009,20.697805000000074],[106.76129500000008,20.698243000000048],[106.76099200000004,20.69826800000004],[106.76066700000007,20.698267000000044],[106.76050400000008,20.698243000000048],[106.76033500000005,20.69812100000007],[106.76018100000005,20.697955000000036],[106.75991100000005,20.69748000000004],[106.75981900000005,20.697419000000025],[106.75967100000008,20.697406000000058],[106.75941800000004,20.69742800000006],[106.75878000000006,20.697640000000035],[106.75804600000004,20.697843000000034],[106.75782200000003,20.69784100000004],[106.75760300000007,20.697785000000067],[106.75740800000005,20.697625000000073],[106.75721700000008,20.69734500000004],[106.75674400000008,20.696125000000052],[106.75632300000007,20.694868000000042],[106.75609000000009,20.69396900000004],[106.75588800000008,20.69298500000008],[106.75583800000004,20.692477000000054],[106.75579300000004,20.691851000000042],[106.75586600000008,20.69103700000005],[106.75616700000006,20.689618000000053],[106.75648700000005,20.688731000000075],[106.75703500000009,20.687817000000052],[106.75767500000006,20.686950000000024],[106.75838500000003,20.686345000000074],[106.75906000000003,20.68593800000008],[106.76008400000006,20.68550300000004],[106.76055300000007,20.68538700000005],[106.76099400000004,20.68527400000005],[106.76120600000007,20.685164000000043],[106.76130400000005,20.68506300000007],[106.76152900000005,20.68476000000004],[106.76177600000005,20.68446700000004],[106.76243600000004,20.683782000000065],[106.76261500000004,20.68361100000004],[106.76331100000004,20.683128000000067],[106.76362800000004,20.682611000000065],[106.76398900000004,20.682177000000024],[106.76436600000005,20.681836000000033],[106.76454100000007,20.681714000000056],[106.76504400000005,20.681429000000037],[106.76510500000006,20.681395000000066],[106.76541800000007,20.68125900000007],[106.76610100000005,20.68101500000006],[106.76646900000009,20.680899000000068],[106.76687200000003,20.68079400000005],[106.76748400000008,20.68068500000004],[106.76805500000006,20.68063600000005],[106.76838100000003,20.680627000000072],[106.76862300000005,20.68062100000003],[106.76980500000008,20.68074400000006],[106.77094600000004,20.68094300000007],[106.77206300000006,20.681216000000063],[106.77249000000006,20.68135300000006],[106.77437700000007,20.681955000000073],[106.77526700000004,20.682305000000042],[106.77636800000005,20.68277800000004],[106.77783900000009,20.683508000000074],[106.77801400000004,20.683621000000073],[106.77900600000004,20.68426100000005],[106.77956700000004,20.684677000000022],[106.77998000000008,20.684984000000043],[106.78040000000004,20.685375000000022],[106.78095600000006,20.685981000000027],[106.78183900000005,20.686973000000023],[106.78208000000006,20.687291000000073],[106.78228100000007,20.687467000000026],[106.78243500000008,20.68754000000007],[106.78302600000006,20.687723000000062],[106.78327700000006,20.68779500000005],[106.78350400000005,20.68783300000007],[106.78371400000009,20.68784800000003],[106.78396200000009,20.687856000000068],[106.78421600000007,20.687850000000026],[106.78379700000005,20.688259000000073],[106.78372300000007,20.68838500000004],[106.78358500000007,20.688548000000026],[106.78351100000003,20.68872200000004],[106.78345600000006,20.688926000000038],[106.78340100000008,20.689112000000023],[106.78334600000005,20.689279000000056],[106.78323400000005,20.689490000000035],[106.78316500000005,20.689580000000035],[106.78310300000004,20.689676000000077],[106.78306600000008,20.689796000000058],[106.78306800000007,20.68998700000003],[106.78304400000007,20.69010700000007],[106.78297600000008,20.690191000000027],[106.78290100000004,20.690278000000035],[106.78281900000007,20.690372000000025],[106.78272600000008,20.690582000000063],[106.78256600000009,20.691008000000068],[106.78252400000008,20.691206000000022],[106.78250100000008,20.691403000000037],[106.78249700000003,20.691624000000047],[106.78245500000008,20.691798000000063],[106.78232400000007,20.692003000000057],[106.78220500000003,20.692153000000076],[106.78211100000004,20.69228000000004],[106.78202000000005,20.69266300000004],[106.78190400000005,20.693584000000044],[106.78187300000008,20.693763000000047],[106.78172600000005,20.69460200000003],[106.78155600000008,20.695273000000043],[106.78146400000008,20.695505000000026],[106.78134000000006,20.695821000000024],[106.78133400000007,20.69583700000004],[106.78127600000005,20.696339000000023],[106.78133600000007,20.697103000000027],[106.78136500000005,20.697402000000068],[106.78149600000006,20.697771000000046],[106.78157100000004,20.69788200000005],[106.78163000000006,20.697970000000055],[106.78170800000004,20.69808400000005],[106.78171900000007,20.698101000000065],[106.78221300000007,20.698626000000047],[106.78276800000003,20.699230000000057],[106.78286100000008,20.699311000000023],[106.78310700000009,20.699527000000046],[106.78355400000004,20.69974600000006],[106.78414700000008,20.699925000000064],[106.78428200000008,20.69994900000006],[106.78450400000008,20.699954000000048],[106.78457600000007,20.699948000000063],[106.78466000000009,20.699921000000074],[106.78470800000008,20.699835000000064],[106.78483800000004,20.699291000000073],[106.78486100000003,20.699194000000034],[106.78489000000008,20.699074000000053],[106.78489800000006,20.699041000000022],[106.78493400000008,20.698889000000065],[106.78497400000003,20.69870000000003],[106.78499300000004,20.69863900000007],[106.78500100000008,20.698613000000023],[106.78500600000007,20.698600000000056],[106.78501400000005,20.698575000000062],[106.78506500000009,20.698301000000072],[106.78505300000006,20.69820100000004],[106.78497100000004,20.69803900000005],[106.78461800000008,20.697646000000077],[106.78457800000007,20.697467000000074],[106.78463000000005,20.69736000000006],[106.78463000000005,20.697359000000063],[106.78470300000004,20.697234000000037],[106.78472700000003,20.697193000000027],[106.78484000000009,20.69702700000005],[106.78487600000005,20.696890000000053],[106.78487700000005,20.696886000000063],[106.78487800000005,20.69688000000008],[106.78489400000007,20.696736000000044],[106.78491100000008,20.69654500000007],[106.78491300000007,20.696540000000027],[106.78491700000006,20.69646000000006],[106.78496800000005,20.696294000000023],[106.78503600000005,20.69620100000003],[106.78517900000008,20.696127000000047],[106.78529000000009,20.696071000000074],[106.78542200000004,20.696003000000076],[106.78552000000008,20.69594500000005],[106.78556900000007,20.695880000000045],[106.78558000000004,20.695865000000026],[106.78560200000004,20.695786000000055],[106.78565000000003,20.695741000000055],[106.78567000000004,20.69572100000005],[106.78594400000009,20.69563400000004],[106.78614800000008,20.695560000000057],[106.78657900000007,20.695416000000023],[106.78678500000007,20.695347000000027],[106.78698300000008,20.69525500000003],[106.78703300000006,20.69520700000004],[106.78707300000008,20.695168000000024],[106.78721700000006,20.695052000000032],[106.78742900000009,20.694993000000068],[106.78774000000004,20.694889000000046],[106.78774400000009,20.69488800000005],[106.78776700000009,20.694882000000064],[106.78799900000007,20.694822000000045],[106.78827900000005,20.694808000000023],[106.78843300000005,20.694815000000062],[106.78855300000004,20.694815000000062],[106.78868100000005,20.69479400000006],[106.78886100000005,20.694754000000046],[106.78930100000008,20.694661000000053],[106.78957900000006,20.694612000000063],[106.78970900000007,20.69461300000006],[106.79058600000008,20.694619000000046],[106.79095700000005,20.694485000000043],[106.79117100000008,20.694404000000077],[106.79141600000008,20.694323000000054],[106.79162100000008,20.694268000000022],[106.79173200000008,20.69424300000003],[106.79176600000005,20.69420800000006],[106.79176900000004,20.694199000000026],[106.79178100000007,20.694158000000073],[106.79174800000004,20.694088000000022],[106.79171400000007,20.694043000000022],[106.79166700000007,20.693984000000057],[106.79161600000003,20.69391500000006],[106.79152500000004,20.69379200000003],[106.79145500000004,20.693692000000055],[106.79140900000004,20.693628000000047],[106.79130300000008,20.693479000000025],[106.79121200000009,20.69334200000003],[106.79121100000003,20.693341000000032],[106.79096000000004,20.692965000000072],[106.79094400000008,20.692941000000076],[106.79079500000006,20.69269600000007],[106.79060900000007,20.692372000000034],[106.79057800000004,20.69229100000007],[106.79057500000005,20.69228400000003],[106.79057500000005,20.69228300000003],[106.79054800000006,20.692205000000058],[106.79051200000004,20.692119000000048],[106.79043800000005,20.692049000000054],[106.79034700000005,20.69201000000004],[106.79022500000008,20.692003000000057],[106.79012500000005,20.692033000000038],[106.79004500000008,20.692080000000033],[106.79000000000008,20.69212600000003],[106.78997900000007,20.69218600000005],[106.78997800000008,20.692260000000033],[106.78998300000006,20.69229000000007],[106.78998400000006,20.692297000000053],[106.78998800000005,20.692324000000042],[106.79003900000004,20.69238800000005],[106.79014500000005,20.692480000000046],[106.79024100000004,20.692539000000068],[106.79055000000005,20.69270700000004],[106.79062800000008,20.69277500000004],[106.79073200000005,20.69285300000007],[106.79088400000006,20.692991000000063],[106.79092400000008,20.693048000000033],[106.79098000000005,20.693130000000053],[106.79103700000007,20.69321300000007],[106.79111000000006,20.693392000000074],[106.79111600000005,20.693520000000035],[106.79109700000004,20.693598000000065],[106.79105700000008,20.693666000000064],[106.79105200000004,20.693670000000054],[106.79094800000007,20.69377000000003],[106.79082600000004,20.693877000000043],[106.79069700000008,20.69396800000004],[106.79065200000008,20.693993000000034],[106.79050900000004,20.694075000000055],[106.79034500000006,20.69414000000006],[106.79014900000004,20.694209000000058],[106.78999900000008,20.69424300000003],[106.78985200000005,20.69425700000005],[106.78984700000007,20.694258000000048],[106.78978800000004,20.694268000000022],[106.78976000000006,20.694285000000036],[106.78972400000004,20.694326000000046],[106.78970400000009,20.694354000000033],[106.78970400000009,20.69435500000003],[106.78969700000005,20.69436500000006],[106.78969500000005,20.694367000000057],[106.78969100000006,20.694372000000044],[106.78966400000007,20.694399000000033],[106.78964200000007,20.694405000000074],[106.78963900000008,20.69440700000007],[106.78958600000004,20.694424000000026],[106.78957600000007,20.694427000000076],[106.78952400000009,20.694427000000076],[106.78945000000004,20.694427000000076],[106.78937700000006,20.694427000000076],[106.78937300000007,20.694426000000078],[106.78937200000007,20.694426000000078],[106.78935300000006,20.69442200000003],[106.78909600000009,20.694372000000044],[106.78907200000003,20.69436600000006],[106.78874800000006,20.694286000000034],[106.78857200000004,20.694206000000065],[106.78843700000004,20.69411400000007],[106.78834400000005,20.69402800000006],[106.78829700000006,20.693985000000055],[106.78819000000004,20.69386000000003],[106.78815900000006,20.693795000000023],[106.78813600000007,20.693715000000054],[106.78813300000007,20.693700000000035],[106.78812500000004,20.69364500000006],[106.78810300000004,20.693564000000038],[106.78810700000008,20.693524000000025],[106.78811800000005,20.693507000000068],[106.78818200000006,20.693413000000078],[106.78818900000005,20.693403000000046],[106.78833500000007,20.693230000000028],[106.78846700000008,20.693073000000027],[106.78853200000009,20.69299600000005],[106.78866400000004,20.69284200000004],[106.78873800000008,20.692780000000027],[106.78891100000004,20.692642000000035],[106.78905000000009,20.692526000000043],[106.78917100000007,20.69242500000007],[106.78924300000006,20.69233500000007],[106.78925500000008,20.692305000000033],[106.78925800000007,20.69229800000005],[106.78927900000008,20.69224600000007],[106.78928400000007,20.692183000000057],[106.78927100000004,20.692101000000036],[106.78925300000009,20.692074000000048],[106.78921700000006,20.692018000000076],[106.78914500000008,20.691971000000024],[106.78905400000008,20.691943000000038],[106.78896600000007,20.691927000000078],[106.78888100000006,20.691935000000058],[106.78878000000009,20.69196900000003],[106.78871300000009,20.69200900000004],[106.78866300000004,20.69210000000004],[106.78863200000006,20.69219400000003],[106.78861900000004,20.692304000000036],[106.78861900000004,20.692307000000028],[106.78862100000003,20.69238000000007],[106.78862400000008,20.69245200000006],[106.78862000000004,20.692530000000033],[106.78860500000008,20.69261700000004],[106.78858400000007,20.692674000000068],[106.78855600000009,20.692746000000056],[106.78849000000008,20.692873000000077],[106.78840500000007,20.692984000000024],[106.78833300000008,20.693065000000047],[106.78832400000005,20.69307500000008],[106.78824200000008,20.693167000000074],[106.78817000000004,20.69324800000004],[106.78810600000008,20.69331900000003],[106.78802600000006,20.693415000000073],[106.78799800000007,20.693434000000025],[106.78796800000003,20.693456000000026],[106.78794200000004,20.693474000000037],[106.78786000000008,20.693498000000034],[106.78779000000009,20.693497000000036],[106.78777400000007,20.69349600000004],[106.78766600000006,20.693482000000074],[106.78754300000008,20.693441000000064],[106.78725000000009,20.693343000000027],[106.78713700000009,20.69329700000003],[106.78694800000005,20.69317600000005],[106.78680700000007,20.693088000000046],[106.78671400000007,20.693005000000028],[106.78660500000007,20.692881000000057],[106.78648500000008,20.692676000000063],[106.78639800000008,20.692525000000046],[106.78629600000005,20.692248000000063],[106.78622600000006,20.691929000000073],[106.78620000000006,20.691702000000078],[106.78619300000008,20.691528000000062],[106.78620400000005,20.691389000000072],[106.78624800000006,20.691207000000077],[106.78630700000008,20.691024000000027],[106.78636500000005,20.69090700000004],[106.78651600000006,20.690683000000035],[106.78661900000009,20.69056500000005],[106.78671200000008,20.690468000000067],[106.78679000000005,20.69043700000003],[106.78679300000005,20.690436000000034],[106.78688700000004,20.69043300000004],[106.78729100000004,20.69051600000006],[106.78745700000007,20.690535000000068],[106.78756000000004,20.690554000000077],[106.78762300000005,20.69057600000008],[106.78770000000009,20.690616000000034],[106.78776700000009,20.690665000000024],[106.78784900000005,20.69074100000006],[106.78792700000008,20.690836000000047],[106.78806800000007,20.690995000000044],[106.78816600000005,20.691061000000047],[106.78823800000004,20.691093000000023],[106.78829300000007,20.691108000000042],[106.78834700000004,20.691111000000035],[106.78843900000004,20.691098000000068],[106.78850200000005,20.69108200000005],[106.78854200000006,20.691055000000063],[106.78857400000004,20.690998000000036],[106.78859900000003,20.690919000000065],[106.78861900000004,20.690860000000043],[106.78866500000004,20.69065800000004],[106.78866200000004,20.69056800000004],[106.78862700000008,20.690498000000048],[106.78857300000004,20.690443000000073],[106.78842800000007,20.69033600000006],[106.78832000000006,20.690308000000073],[106.78819000000004,20.690315000000055],[106.78797300000008,20.69038400000005],[106.78788300000008,20.690428000000054],[106.78786800000006,20.690435000000036],[106.78773200000006,20.690463000000022],[106.78763900000007,20.69047400000005],[106.78763000000004,20.690473000000054],[106.78756300000003,20.69047000000006],[106.78734700000007,20.690443000000073],[106.78705400000007,20.69039900000007],[106.78700200000009,20.69038800000004],[106.78680700000007,20.690364000000045],[106.78676400000006,20.690334000000064],[106.78676300000006,20.69033200000007],[106.78673000000003,20.690293000000054],[106.78669600000006,20.690225000000055],[106.78665500000005,20.690127000000075],[106.78661700000004,20.68997900000005],[106.78659500000003,20.68977600000005],[106.78658000000007,20.68948000000006],[106.78658400000006,20.689449000000025],[106.78662600000007,20.68923300000006],[106.78671700000007,20.688934000000074],[106.78679100000005,20.688748000000032],[106.78691300000008,20.68857600000007],[106.78697300000005,20.688517000000047],[106.78707000000009,20.68842200000006],[106.78726100000006,20.688270000000045],[106.78729000000004,20.68824600000005],[106.78753600000005,20.688068000000044],[106.78784300000007,20.687901000000068],[106.78790600000008,20.687868000000037],[106.78800400000006,20.687819000000047],[106.78818100000007,20.687757000000033],[106.78832700000004,20.687744000000066],[106.78846000000004,20.687763000000075],[106.78860700000007,20.687812000000065],[106.78884600000004,20.687924000000066],[106.78904300000005,20.688037000000065],[106.78907700000008,20.688056000000074],[106.78913400000005,20.68810600000006],[106.78920200000005,20.688195000000064],[106.78923800000007,20.688326000000075],[106.78925900000007,20.688544000000036],[106.78929400000004,20.68889100000007],[106.78929500000004,20.688932000000023],[106.78929300000004,20.68900300000007],[106.78928800000006,20.689053000000058],[106.78926400000006,20.689151000000038],[106.78920700000003,20.689311000000032],[106.78919200000007,20.689343000000065],[106.78911900000008,20.68946100000005],[106.78909700000008,20.68954800000006],[106.78909300000004,20.689565000000073],[106.78908200000006,20.68960500000003],[106.78908300000006,20.689622000000043],[106.78908400000006,20.689738000000034],[106.78908400000006,20.689770000000067],[106.78908900000005,20.689779000000044],[106.78915800000004,20.689905000000067],[106.78928900000005,20.689986000000033],[106.78940000000006,20.690026000000046],[106.78944600000005,20.690042000000062],[106.78961700000008,20.69005100000004],[106.78977700000007,20.690031000000033],[106.78987900000004,20.68999800000006],[106.78995900000007,20.689940000000036],[106.79001900000009,20.68988200000007],[106.79004900000007,20.68982100000005],[106.79004800000007,20.68973500000004],[106.79001600000004,20.68964900000003],[106.78993800000006,20.689517000000023],[106.78978000000006,20.68935700000003],[106.78963000000005,20.68919100000005],[106.78953700000005,20.689066000000025],[106.78945100000004,20.688866000000075],[106.78939900000006,20.688687000000073],[106.78936900000008,20.68842200000006],[106.78934900000007,20.688207000000034],[106.78935100000007,20.688162000000034],[106.78936700000008,20.688083000000063],[106.78946400000007,20.687919000000022],[106.78957300000008,20.68783200000007],[106.78978100000006,20.68770100000006],[106.78997100000004,20.68762300000003],[106.79022900000007,20.687545000000057],[106.79048400000005,20.68751800000007],[106.79076200000009,20.687522000000058],[106.79099100000008,20.68755200000004],[106.79135800000006,20.687663000000043],[106.79156500000005,20.687761000000023],[106.79175700000008,20.687874000000022],[106.79182500000007,20.687853000000075],[106.79189500000007,20.68779900000004],[106.79230000000007,20.687244000000078],[106.79258700000008,20.686780000000056],[106.79264100000006,20.68670000000003],[106.79262400000005,20.686676000000034],[106.79259400000007,20.68664700000005],[106.79253200000005,20.686612000000025],[106.79245200000008,20.686567000000025],[106.79233800000009,20.68650400000007],[106.79229200000009,20.686480000000074],[106.79227800000007,20.68644500000005],[106.79231000000004,20.686371000000065],[106.79233100000005,20.68635400000005],[106.79240400000003,20.686335000000042],[106.79243900000006,20.686308000000054],[106.79248200000006,20.68626500000005],[106.79255700000004,20.68610300000006],[106.79282700000005,20.68534500000004],[106.79292000000004,20.68513800000005],[106.79317500000008,20.68465100000003],[106.79322500000006,20.68460600000003],[106.79328500000008,20.684611000000075],[106.79340300000007,20.684654000000023],[106.79349500000006,20.684700000000078],[106.79351800000006,20.684661000000062],[106.79377400000004,20.68438100000003],[106.79386800000009,20.684276000000068],[106.79392000000007,20.684172000000046],[106.79396100000008,20.684082000000046],[106.79396000000008,20.684014000000047],[106.79394800000006,20.68398200000007],[106.79383600000006,20.683918000000062],[106.79383300000006,20.683906000000036],[106.79386700000003,20.683840000000032],[106.79388800000004,20.683831000000055],[106.79394900000005,20.68385100000006],[106.79406100000006,20.683906000000036],[106.79410600000006,20.68390900000003],[106.79415300000005,20.683899000000054],[106.79418800000008,20.683854000000053],[106.79419700000005,20.683809000000053],[106.79419000000007,20.683753000000024],[106.79402900000008,20.683656000000042],[106.79400700000008,20.683643000000075],[106.79393100000004,20.683598000000075],[106.79390900000004,20.683552000000077],[106.79393500000003,20.68348700000007],[106.79414900000006,20.68324800000005],[106.79488000000003,20.682556000000034],[106.79506800000007,20.682346000000052],[106.79511000000008,20.682335000000023],[106.79524000000004,20.68242300000003],[106.79531300000008,20.682444000000032],[106.79538100000008,20.68241800000004],[106.79571300000003,20.682128000000034],[106.79594500000007,20.68193700000006],[106.79616000000004,20.68182100000007],[106.79634000000004,20.681738000000053],[106.79639900000006,20.681689000000063],[106.79648300000008,20.68161800000007],[106.79648900000007,20.681564000000037],[106.79650000000004,20.681462000000067],[106.79638300000005,20.681339000000037],[106.79629900000003,20.68116100000003],[106.79626400000006,20.681106000000057],[106.79601900000006,20.680724000000055],[106.79581000000007,20.68020000000007],[106.79578200000009,20.679976000000067],[106.79578200000009,20.679546000000073],[106.79584900000003,20.679163000000074],[106.79603700000007,20.678735000000074],[106.79637700000006,20.67833500000006],[106.79692700000004,20.677976000000058],[106.79714300000006,20.677888000000053],[106.79731600000008,20.677819000000056],[106.79780800000009,20.677751000000058],[106.79829100000006,20.67779900000005],[106.79885100000007,20.677946000000077],[106.79926100000006,20.67821900000007],[106.79943800000007,20.678369000000032],[106.79976500000004,20.67875900000007],[106.80007000000006,20.679253000000074],[106.80031400000007,20.67967100000004],[106.80049300000007,20.680228000000056],[106.80061900000004,20.680580000000077],[106.80066300000004,20.68068500000004],[106.80083200000007,20.68077900000003],[106.80090200000006,20.680818000000045],[106.80100400000003,20.680826000000025],[106.80118400000003,20.680781000000025],[106.80145300000004,20.680683000000045],[106.80170200000003,20.680571000000043],[106.80233000000004,20.680291000000068],[106.80246900000009,20.680201000000068],[106.80287900000008,20.679933000000062],[106.80349400000006,20.679365000000075],[106.80378800000005,20.679004000000077],[106.80390000000006,20.678863000000035],[106.80396900000005,20.678758000000073],[106.80401800000004,20.678667000000075],[106.80408000000006,20.678517000000056],[106.80411400000008,20.67841500000003],[106.80405100000007,20.67818900000003],[106.80392900000004,20.677878000000078],[106.80386600000008,20.67766000000006],[106.80380400000007,20.677557000000036],[106.80367300000006,20.67746100000005],[106.80361100000005,20.67739000000006],[106.80358400000006,20.67731200000003],[106.80356000000006,20.677229000000068],[106.80343300000004,20.677141000000063],[106.80320000000006,20.677061000000037],[106.80305100000004,20.67703800000004],[106.80283000000009,20.677047000000073],[106.80263700000006,20.67705600000005],[106.80249900000007,20.67703300000005],[106.80240800000007,20.676999000000023],[106.80235700000009,20.676955000000078],[106.80230300000005,20.67689500000006],[106.80224900000007,20.676860000000033],[106.80213800000007,20.676825000000065],[106.80206900000007,20.67678600000005],[106.80203000000006,20.67672600000003],[106.80198700000005,20.67657200000008],[106.80196500000005,20.676555000000064],[106.80192900000009,20.676526000000024],[106.80189400000006,20.67649700000004],[106.80180200000007,20.676441000000068],[106.80171100000007,20.676449000000048],[106.80157500000007,20.676522000000034],[106.80128800000006,20.676776000000075],[106.80102400000004,20.676972000000035],[106.80091000000004,20.677049000000068],[106.80086400000005,20.67708600000003],[106.80081800000005,20.67712400000005],[106.80078300000008,20.677155000000027],[106.80074800000006,20.67718700000006],[106.80072400000006,20.677211000000057],[106.80070000000006,20.677235000000053],[106.80067800000006,20.677257000000054],[106.80065500000006,20.677278000000058],[106.80063000000007,20.677291000000025],[106.80060400000008,20.677293000000077],[106.80057900000008,20.677284000000043],[106.80056800000006,20.67725800000005],[106.80056800000006,20.677227000000073],[106.80058100000008,20.677203000000077],[106.80058300000007,20.677181000000076],[106.80057200000005,20.677155000000027],[106.80053600000008,20.677143000000058],[106.80053200000003,20.677141000000063],[106.80050600000004,20.677141000000063],[106.80048100000005,20.67714200000006],[106.80042400000008,20.677158000000077],[106.80037500000009,20.677166000000057],[106.80032500000004,20.67717300000004],[106.80028600000009,20.677163000000064],[106.80028300000004,20.677163000000064],[106.80024700000007,20.67715400000003],[106.80021800000009,20.677139000000068],[106.80021100000005,20.677136000000075],[106.80015300000008,20.677107000000035],[106.80012300000004,20.67709300000007],[106.80008000000004,20.677072000000067],[106.80004800000006,20.67705600000005],[106.80002100000007,20.67703700000004],[106.80000700000005,20.67702600000007],[106.79994300000004,20.676979000000074],[106.79992500000009,20.676965000000052],[106.79989300000005,20.676942000000054],[106.79983300000004,20.676897000000054],[106.79982000000007,20.676886000000025],[106.79980800000004,20.67687600000005],[106.79976000000005,20.67683500000004],[106.79975500000006,20.67683100000005],[106.79970400000008,20.676787000000047],[106.79966800000005,20.676757000000066],[106.79964100000007,20.67673300000007],[106.79961700000007,20.676713000000063],[106.79959500000007,20.67669200000006],[106.79958900000008,20.676686000000075],[106.79957400000006,20.676671000000056],[106.79949200000004,20.676590000000033],[106.79949000000005,20.676589000000035],[106.79948400000006,20.676581000000056],[106.79943500000007,20.67651200000006],[106.79942400000004,20.676496000000043],[106.79939400000006,20.676455000000033],[106.79935500000005,20.676400000000058],[106.79935100000006,20.67639500000007],[106.79933900000009,20.67637700000006],[106.79932800000006,20.676361000000043],[106.79928000000007,20.676269000000048],[106.79924900000009,20.67620800000003],[106.79924200000005,20.676194000000066],[106.79924000000005,20.676189000000022],[106.79922500000004,20.676150000000064],[106.79921900000005,20.676136000000042],[106.79921200000007,20.67611800000003],[106.79919900000004,20.676083000000062],[106.79919100000006,20.67606200000006],[106.79919000000007,20.67605700000007],[106.79918300000008,20.676004000000034],[106.79917800000004,20.67596100000003],[106.79918000000004,20.675913000000037],[106.79918100000003,20.675902000000065],[106.79918400000008,20.67582900000008],[106.79920600000008,20.675710000000038],[106.79922100000005,20.675659000000053],[106.79926400000005,20.675512000000026],[106.79930700000006,20.675411000000054],[106.79931300000004,20.675397000000032],[106.79943500000007,20.675109000000077],[106.79951400000004,20.674931000000072],[106.79952100000008,20.674914000000058],[106.79955100000006,20.67484600000006],[106.79957600000006,20.674791000000027],[106.79967600000003,20.67456500000003],[106.79982100000007,20.67423800000006],[106.79993600000006,20.674036000000058],[106.80001000000004,20.67393100000004],[106.80008600000008,20.673823000000027],[106.80016200000006,20.673725000000047],[106.80027000000007,20.673588000000052],[106.80053800000007,20.67334100000005],[106.80056100000007,20.673321000000044],[106.80070800000004,20.673196000000075],[106.80086200000005,20.673065000000065],[106.80088500000005,20.673046000000056],[106.80112700000006,20.672845000000052],[106.80142000000006,20.672601000000043],[106.80172600000009,20.67234600000006],[106.80183400000004,20.67225600000006],[106.80189900000005,20.67220100000003],[106.80208800000008,20.67208100000005],[106.80216800000005,20.672030000000063],[106.80225300000006,20.67198600000006],[106.80243300000006,20.67190000000005],[106.80247500000007,20.67188100000004],[106.80265600000007,20.671809000000053],[106.80280700000009,20.671758000000068],[106.80301300000008,20.671710000000076],[106.80315000000007,20.671678000000043],[106.80317600000006,20.671672000000058],[106.80319500000007,20.671668000000068],[106.80346600000007,20.671617000000026],[106.80354700000004,20.671605000000056],[106.80369100000007,20.671583000000055],[106.80403600000005,20.671543000000042],[106.80477600000006,20.671447000000057],[106.80478600000004,20.671447000000057],[106.80499700000007,20.671440000000075],[106.80531700000006,20.67143500000003],[106.80563600000005,20.67146900000006],[106.80575400000004,20.67148700000007],[106.80618300000003,20.671621000000073],[106.80687900000004,20.671918000000062],[106.80762800000008,20.672337000000027],[106.80765600000007,20.672356000000036],[106.80814400000008,20.672712000000047],[106.80863300000004,20.673104000000023],[106.80871200000007,20.67316500000004],[106.80880900000005,20.673196000000075],[106.80885400000005,20.673145000000034],[106.80933100000004,20.672641000000056],[106.80805200000009,20.67179600000003],[106.80804500000005,20.67176900000004],[106.80806000000007,20.671682000000033],[106.80811000000006,20.671613000000036],[106.80816300000004,20.67160400000006],[106.80824000000007,20.67160300000006],[106.80830300000008,20.671632000000045],[106.80835200000007,20.671691000000067],[106.80838100000005,20.671775000000025],[106.80845900000008,20.671884000000034],[106.80868900000007,20.67204300000003],[106.80925400000007,20.672417000000053],[106.80939000000006,20.67249000000004],[106.80943400000007,20.67248200000006],[106.80950400000006,20.672434000000067],[106.80962700000003,20.672303000000056],[106.80966200000006,20.672296000000074],[106.80970100000008,20.672296000000074],[106.80974700000007,20.672321000000068],[106.80976700000008,20.67235900000003],[106.80975800000004,20.672402000000034],[106.80967800000008,20.67252300000007],[106.80967100000004,20.672566000000074],[106.80969800000008,20.67261700000006],[106.80990300000008,20.672806000000037],[106.81016700000004,20.67309400000005],[106.81032700000009,20.673283000000026],[106.81032500000003,20.673321000000044],[106.81030700000008,20.673348000000033],[106.81026900000006,20.67336300000005],[106.81021800000008,20.67334900000003],[106.81006400000007,20.67318800000004],[106.81000800000004,20.673150000000078],[106.80992600000008,20.673118000000045],[106.80987300000004,20.67311600000005],[106.80978500000003,20.673172000000022],[106.80949300000009,20.673452000000054],[106.80934100000007,20.67360300000007],[106.80933800000008,20.67361200000005],[106.80934900000005,20.673669000000075],[106.80938900000007,20.67376100000007],[106.80953300000004,20.67394900000005],[106.80989400000004,20.674404000000038],[106.81011900000004,20.674709000000064],[106.81019700000007,20.674888000000067],[106.81022300000006,20.67513100000008],[106.81021000000004,20.675354000000027],[106.81018200000005,20.67555500000003],[106.81011600000005,20.67579900000004],[106.81003500000008,20.676015000000064],[106.81001400000008,20.676130000000057],[106.81001300000008,20.67616300000003],[106.81002500000005,20.676184000000035],[106.81004800000005,20.676202000000046],[106.81005600000009,20.676234000000022],[106.81005600000009,20.676259000000073],[106.81004500000006,20.676281000000074],[106.81001100000009,20.67631300000005],[106.80996900000008,20.67632800000007],[106.80989700000003,20.676368000000025],[106.80985600000008,20.676397000000065],[106.80975900000004,20.67647000000005],[106.80970600000006,20.676521000000037],[106.80954800000006,20.676687000000072],[106.80943500000006,20.676817000000028],[106.80934000000008,20.67689000000007],[106.80925400000007,20.676955000000078],[106.80915400000004,20.67701900000003],[106.80892100000005,20.677167000000054],[106.80843900000008,20.677595000000053],[106.80816700000008,20.677820000000054],[106.80806200000006,20.677943000000027],[106.80786700000004,20.67824600000006],[106.80756100000008,20.678766000000053],[106.80741500000005,20.678986000000066],[106.80732200000006,20.679138000000023],[106.80727700000006,20.679215000000056],[106.80724700000007,20.679265000000044],[106.80723300000005,20.67931100000004],[106.80720300000007,20.67940200000004],[106.80718900000005,20.679464000000053],[106.80717900000008,20.679505000000063],[106.80716500000005,20.679561000000035],[106.80716200000006,20.679572000000064],[106.80714200000006,20.679632000000026],[106.80711000000008,20.679726000000073],[106.80709800000005,20.679759000000047],[106.80709100000007,20.679809000000034],[106.80707900000004,20.679881000000023],[106.80704000000009,20.67996500000004],[106.80699700000008,20.680045000000064],[106.80694500000004,20.68012600000003],[106.80687000000006,20.680218000000025],[106.80682700000006,20.680266000000074],[106.80679000000003,20.680303000000038],[106.80673200000007,20.680349000000035],[106.80666600000006,20.680399000000023],[106.80664000000007,20.680434000000048],[106.80661700000007,20.68048200000004],[106.80659300000008,20.680530000000033],[106.80657700000006,20.680592000000047],[106.80656400000004,20.680649000000074],[106.80654500000009,20.680743000000064],[106.80652900000007,20.68080200000003],[106.80651100000006,20.680858000000057],[106.80648900000006,20.680889000000036],[106.80645900000007,20.68092000000007],[106.80641700000007,20.680949000000055],[106.80638100000004,20.680968000000064],[106.80633400000005,20.68097300000005],[106.80628900000005,20.680971000000056],[106.80625900000007,20.680968000000064],[106.80624000000006,20.68095100000005],[106.80623000000008,20.680922000000066],[106.80624300000005,20.680863000000045],[106.80624500000005,20.680821000000037],[106.80625500000008,20.680788000000064],[106.80627700000008,20.68076300000007],[106.80631100000005,20.68072600000005],[106.80635600000005,20.68065900000005],[106.80634100000009,20.68059500000004],[106.80632400000007,20.680526000000043],[106.80623200000008,20.680484000000035],[106.80605400000007,20.68046700000008],[106.80587100000008,20.680491000000075],[106.80570800000004,20.680526000000043],[106.80559100000005,20.680551000000037],[106.80533800000006,20.68072600000005],[106.80517700000007,20.680975000000046],[106.80510000000004,20.681227000000035],[106.80504100000007,20.681500000000028],[106.80504700000006,20.681587000000036],[106.80504100000007,20.681728000000078],[106.80503000000004,20.681876000000045],[106.80495900000005,20.68218100000007],[106.80492600000008,20.68228300000004],[106.80476700000008,20.682600000000036],[106.80463800000007,20.682821000000047],[106.80446000000006,20.683205000000044],[106.80430100000007,20.68350300000003],[106.80411300000009,20.683926000000042],[106.80393300000009,20.684195000000045],[106.80373200000008,20.684417000000053],[106.80352000000005,20.684525000000065],[106.80329800000004,20.68459400000006],[106.80299300000007,20.684616000000062],[106.80272900000006,20.684581000000037],[106.80248400000005,20.68449700000008],[106.80217800000008,20.684357000000034],[106.80185000000006,20.684188000000063],[106.80178700000005,20.684146000000055],[106.80147200000005,20.683934000000022],[106.80124700000005,20.68380300000007],[106.80111700000003,20.683727000000033],[106.80110300000007,20.683718000000056],[106.80104500000004,20.683704000000034],[106.80098600000008,20.683691000000067],[106.80086900000003,20.683663000000024],[106.80072900000005,20.68363800000003],[106.80062200000003,20.683632000000046],[106.80057700000003,20.683625000000063],[106.80053500000008,20.683618000000024],[106.80051400000008,20.68361500000003],[106.80048000000005,20.683610000000044],[106.80044900000007,20.683605000000057],[106.80026000000004,20.68355900000006],[106.80022000000008,20.683506000000023],[106.80017500000008,20.683467000000064],[106.80011600000006,20.683440000000076],[106.79992300000004,20.683414000000027],[106.79974000000004,20.68337800000006],[106.79953100000006,20.68334200000004],[106.79932800000006,20.68331500000005],[106.79915000000005,20.683298000000036],[106.79894200000007,20.68330000000003],[106.79872800000004,20.68333300000006],[106.79844300000008,20.68343500000003],[106.79824900000006,20.683515000000057],[106.79809000000006,20.683594000000028],[106.79779900000005,20.683718000000056],[106.79750900000005,20.683843000000024],[106.79732600000006,20.683884000000035],[106.79721400000005,20.68390800000003],[106.79714400000006,20.683924000000047],[106.79691600000007,20.68398300000007],[106.79671300000007,20.68400500000007],[106.79662600000006,20.684065000000032],[106.79647500000004,20.684191000000055],[106.79629800000004,20.684461000000056],[106.79608900000005,20.68485000000004],[106.79603000000009,20.684979000000055],[106.79593100000005,20.685193000000027],[106.79591100000005,20.68523700000003],[106.79579200000006,20.685549000000037],[106.79568900000004,20.685813000000053],[106.79566000000005,20.68593800000008],[106.79565400000007,20.685962000000075],[106.79563300000007,20.686050000000023],[106.79557600000004,20.686286000000052],[106.79553600000008,20.68644800000004],[106.79546000000005,20.686874000000046],[106.79543500000005,20.687333000000024],[106.79544500000009,20.687684000000047],[106.79545300000007,20.687997000000053],[106.79547600000006,20.688279000000023],[106.79548000000005,20.688337000000047],[106.79550700000004,20.688661000000025],[106.79557400000004,20.68916900000005],[106.79559000000006,20.68929600000007],[106.79562900000008,20.68960100000004],[106.79567800000007,20.68984400000005],[106.79570500000005,20.689992000000075],[106.79569100000003,20.690126000000078],[106.79570000000007,20.69014500000003],[106.79579000000007,20.69032100000004],[106.79593900000003,20.690586000000053],[106.79594400000008,20.690596000000028],[106.79612600000007,20.690919000000065],[106.79620800000004,20.691065000000037],[106.79630800000007,20.691243000000043],[106.79634400000003,20.691297000000077],[106.79667900000004,20.691793000000075],[106.79672700000003,20.691864000000066],[106.79691200000008,20.692082000000028],[106.79703600000005,20.692219000000023],[106.79708100000005,20.692255000000046],[106.79723600000005,20.692379000000074],[106.79731500000008,20.69242900000006],[106.79754800000006,20.69257700000003],[106.79791100000006,20.69281200000006],[106.79801800000007,20.692878000000064],[106.79813100000007,20.692948000000058],[106.79825500000004,20.693095000000028],[106.79832800000008,20.693228000000033],[106.79834500000004,20.693415000000073],[106.79833600000006,20.693707000000074],[106.79831700000005,20.69382500000006],[106.79823700000009,20.69433900000007],[106.79822600000006,20.694420000000036],[106.79819500000008,20.69464800000003],[106.79817500000007,20.694956000000047],[106.79816300000005,20.69516500000003],[106.79813600000006,20.695265000000063],[106.79807100000005,20.69540900000004],[106.79801200000009,20.69549600000005],[106.79787200000004,20.695689000000073],[106.79782200000005,20.695756000000074],[106.79777200000007,20.695823000000075],[106.79774400000008,20.69585900000004],[106.79764200000005,20.695993000000044],[106.79753700000003,20.69608400000004],[106.79739400000005,20.696170000000052],[106.79735900000009,20.696188000000063],[106.79720200000008,20.69627200000002],[106.79715100000004,20.696297000000072],[106.79705200000006,20.696348000000057],[106.79695400000008,20.696399000000042],[106.79684400000008,20.69646400000005],[106.79682900000006,20.69647200000003],[106.79667000000006,20.696581000000037],[106.79646600000007,20.696695000000034],[106.79628400000007,20.696772000000067],[106.79612800000007,20.696813000000077],[106.79596100000003,20.696847000000048],[106.79580100000004,20.696867000000054],[106.79564900000008,20.69687200000004],[106.79553500000009,20.696862000000067],[106.79540500000007,20.69684200000006],[106.79538300000007,20.696837000000073],[106.79536100000007,20.696833000000026],[106.79528200000004,20.69682400000005],[106.79520900000006,20.696825000000047],[106.79515000000004,20.69682700000004],[106.79505800000004,20.696826000000044],[106.79498100000006,20.69681600000007],[106.79492600000003,20.696788000000026],[106.79464300000006,20.696657000000073],[106.79455300000006,20.696601000000044],[106.79444800000005,20.69655800000004],[106.79432700000007,20.696556000000044],[106.79421600000006,20.696575000000053],[106.79411800000008,20.696601000000044],[106.79379900000004,20.69669700000003],[106.79356000000007,20.696836000000076],[106.79332300000004,20.697050000000047],[106.79314100000005,20.697418000000027],[106.79313700000006,20.697426000000064],[106.79309100000006,20.697519000000057],[106.79305400000004,20.69761500000004],[106.79302300000006,20.697723000000053],[106.79299600000007,20.697854000000063],[106.79297000000008,20.69801300000006],[106.79295000000008,20.69818900000007],[106.79292900000007,20.69832400000007],[106.79289600000004,20.698477000000025],[106.79287300000004,20.698653000000036],[106.79287400000004,20.698794000000078],[106.79287800000009,20.69886800000006],[106.79291400000005,20.698969000000034],[106.79296300000004,20.69905300000005],[106.79302100000007,20.69915100000003],[106.79304100000007,20.699205000000063],[106.79309100000006,20.69934500000005],[106.79318900000004,20.69960100000003],[106.79319700000008,20.699744000000067],[106.79318600000005,20.699846000000036],[106.79311800000005,20.70000200000004],[106.79303700000008,20.700116000000037],[106.79293600000005,20.700213000000076],[106.79273400000005,20.70029900000003],[106.79227300000008,20.700495000000046],[106.79195000000004,20.700617000000022],[106.79166600000008,20.700752000000023],[106.79150900000008,20.700840000000028],[106.79139500000008,20.700904000000037],[106.79118700000004,20.701062000000036],[106.79111200000006,20.701158000000078],[106.79106900000005,20.70123600000005],[106.79106400000006,20.701356000000033],[106.79115600000006,20.701671000000033],[106.79121000000004,20.701831000000027],[106.79130100000003,20.70210000000003],[106.79138600000005,20.70238900000004],[106.79143100000005,20.702541000000053],[106.79144100000008,20.702576000000022],[106.79150500000009,20.702825000000075],[106.79151700000006,20.702868000000024],[106.79159100000004,20.703125000000057],[106.79160700000006,20.703182000000027],[106.79163600000004,20.703198000000043],[106.79174200000006,20.703185000000076],[106.79177300000003,20.703189000000066],[106.79180900000006,20.703215000000057],[106.79199400000005,20.703634000000022],[106.79200700000007,20.703684000000067],[106.79200800000007,20.703782000000047],[106.79199100000005,20.70381800000007],[106.79187000000007,20.703881000000024],[106.79184500000008,20.703910000000064],[106.79183200000006,20.70396500000004],[106.79185400000006,20.704041000000075],[106.79187900000005,20.704203000000064],[106.79189800000006,20.704328000000032],[106.79193800000007,20.70442500000007],[106.79203900000005,20.704665000000034],[106.79210000000006,20.70472200000006],[106.79215100000005,20.704736000000025],[106.79229400000008,20.70473400000003],[106.79242100000005,20.70475700000003],[106.79249300000004,20.70480900000007],[106.79250700000006,20.704837000000055],[106.79255900000004,20.704938000000027],[106.79257500000006,20.704999000000043],[106.79257300000006,20.70501900000005],[106.79255100000006,20.705062000000055],[106.79249100000004,20.705115000000035],[106.79239500000006,20.705149000000063],[106.79235500000004,20.705188000000078],[106.79236600000007,20.705245000000048],[106.79239700000005,20.705295000000035],[106.79240700000008,20.70531200000005],[106.79252400000007,20.705546000000027],[106.79336400000005,20.706872000000033],[106.79338600000005,20.70688000000007],[106.79341500000004,20.706886000000054],[106.79344300000008,20.706886000000054],[106.79347200000007,20.706886000000054],[106.79350200000005,20.706882000000064],[106.79353200000008,20.70687900000007],[106.79355700000008,20.706876000000022],[106.79358300000007,20.706872000000033],[106.79360400000007,20.706875000000025],[106.79362400000008,20.706878000000074],[106.79364900000007,20.706893000000036],[106.79374900000005,20.707012000000077],[106.79440800000003,20.70800900000006],[106.79454800000008,20.708222000000035],[106.79486700000007,20.70870700000006],[106.79504100000008,20.70897300000007],[106.79528300000004,20.70941300000004],[106.79565600000006,20.710022000000038],[106.79568300000005,20.710065000000043],[106.79570200000006,20.710095000000024],[106.79574900000006,20.710169000000064],[106.79578000000004,20.710218000000054],[106.79589200000004,20.71034700000007],[106.79615100000007,20.71075600000006],[106.79650900000007,20.711321000000055],[106.79662900000005,20.711509000000035],[106.79753400000004,20.712937000000068],[106.79755700000004,20.712973000000034],[106.79773100000006,20.71324800000008],[106.79785800000008,20.713414000000057],[106.79811900000004,20.713801000000046],[106.79812600000008,20.713812000000075],[106.79816400000004,20.71377700000005],[106.79824600000006,20.713766000000078],[106.79833000000008,20.713798000000054],[106.79841100000004,20.713876000000027],[106.79851600000006,20.714108000000067],[106.79851800000006,20.714222000000063],[106.79847000000007,20.71437700000007],[106.79840900000005,20.714668000000074],[106.79838600000005,20.71502300000003],[106.79841300000004,20.715381000000036],[106.79855600000008,20.716058000000032],[106.79861100000005,20.71632100000005],[106.79861100000005,20.716324000000043],[106.79866900000007,20.71653900000007],[106.79889000000009,20.717161000000033],[106.79891700000007,20.717209000000025],[106.79926400000005,20.71783800000003],[106.79990700000008,20.718735000000038],[106.80038600000006,20.719282000000078],[106.80060200000008,20.719502000000034],[106.80079400000005,20.71960000000007],[106.80093900000008,20.719670000000065],[106.80114000000003,20.71974700000004],[106.80118100000004,20.719754000000023],[106.80124200000006,20.719754000000023],[106.80129900000009,20.719757000000072],[106.80138400000004,20.719764000000055],[106.80146100000007,20.719778000000076],[106.80150200000008,20.719843000000026],[106.80152300000009,20.719903000000045],[106.80154400000004,20.719945000000052],[106.80156900000009,20.71996000000007],[106.80163400000004,20.719990000000053],[106.80165100000005,20.72005100000007],[106.80166400000007,20.720119000000068],[106.80168100000009,20.720180000000028],[106.80168500000008,20.720230000000072],[106.80169000000006,20.72027600000007],[106.80169100000006,20.72033300000004],[106.80169100000006,20.720401000000038],[106.80168800000007,20.72047800000007],[106.80166100000008,20.72053900000003],[106.80161600000008,20.720582000000036],[106.80149800000004,20.720698000000027],[106.80145000000005,20.720792000000074],[106.80143000000004,20.720889000000057],[106.80142200000006,20.720935000000054],[106.80139800000006,20.72099600000007],[106.80137500000006,20.721050000000048],[106.80111900000009,20.721448000000066],[106.80106000000006,20.72163500000005],[106.80106900000004,20.721764000000064],[106.80119500000006,20.721990000000062],[106.80131300000005,20.722225000000037],[106.80139300000008,20.722384000000034],[106.80137100000007,20.722524000000078],[106.80134500000008,20.72260300000005],[106.80131800000004,20.72284200000007],[106.80119900000005,20.723082000000034],[106.80108800000005,20.723198000000025],[106.80107500000008,20.72321100000005],[106.80099100000007,20.723208000000056],[106.80034200000006,20.722867000000065],[106.80005300000005,20.722717000000046],[106.79961500000007,20.722488000000055],[106.79956700000008,20.722465000000057],[106.79898900000006,20.722176000000047],[106.79894100000007,20.722170000000062],[106.79891400000008,20.722188000000074],[106.79884800000008,20.722313000000042],[106.79869900000006,20.72224300000005],[106.79815600000006,20.72198700000007],[106.79815600000006,20.721970000000056],[106.79816900000009,20.72194600000006],[106.79821200000004,20.72186400000004],[106.79822600000006,20.72182600000008],[106.79822300000006,20.721802000000025],[106.79765800000007,20.721546000000046],[106.79760000000005,20.721520000000055],[106.79742800000008,20.721442000000025],[106.79742700000008,20.721442000000025],[106.79738600000007,20.721423000000073],[106.79730800000004,20.721393000000035],[106.79714700000005,20.721331000000077],[106.79698000000008,20.721240000000023],[106.79682200000008,20.72117600000007],[106.79673400000007,20.721141000000046],[106.79672200000005,20.721136000000058],[106.79663700000003,20.721100000000035],[106.79663100000005,20.721097000000043],[106.79638800000004,20.721009000000038],[106.79621500000007,20.720935000000054],[106.79620500000004,20.72092900000007],[106.79615500000006,20.72089600000004],[106.79611700000004,20.720858000000078],[106.79538400000007,20.721478000000047],[106.79571900000008,20.721780000000024],[106.79576900000006,20.721825000000024],[106.79593600000004,20.72197600000004],[106.79603800000007,20.72205500000007],[106.79621700000007,20.72219700000005],[106.79622000000006,20.722199000000046],[106.79636000000005,20.722309000000052],[106.79643900000008,20.722371000000066],[106.79646800000006,20.722394000000065],[106.79675200000008,20.72261700000007],[106.79675500000008,20.722619000000066],[106.79683200000005,20.722676000000035],[106.79684000000009,20.722681000000023],[106.79689600000006,20.722722000000033],[106.79729800000007,20.72301600000003],[106.79730000000006,20.723018000000025],[106.79734000000008,20.723058000000037],[106.79748000000006,20.723197000000027],[106.79808100000008,20.72377700000004],[106.79850200000004,20.72418300000004],[106.79854500000005,20.724285000000066],[106.79851000000008,20.724371000000076],[106.79845200000005,20.724428000000046],[106.79827700000004,20.72449400000005],[106.79801100000009,20.724511000000064],[106.79766100000006,20.724529000000075],[106.79721100000006,20.724534000000062],[106.79701700000004,20.72453900000005],[106.79676900000004,20.724546000000032],[106.79612900000006,20.724574000000075],[106.79570300000006,20.724650000000054],[106.79538500000007,20.724797000000024],[106.79515200000009,20.724964000000057],[106.79463800000008,20.725299000000064],[106.79351600000007,20.725813000000073],[106.79292600000008,20.726120000000037],[106.79229100000003,20.726600000000076],[106.79107100000004,20.727817000000073],[106.79004700000007,20.728875000000073],[106.78926400000006,20.729671000000053],[106.78884100000005,20.73007700000005],[106.78828300000004,20.73051300000003],[106.78799600000008,20.730803000000037],[106.78781700000008,20.731106000000068],[106.78734700000007,20.732241000000045],[106.78734200000008,20.732252000000074],[106.78734200000008,20.73225400000007],[106.78729400000009,20.732346000000064],[106.78721100000007,20.732455000000073],[106.78706000000005,20.732521000000077],[106.78689200000008,20.732544000000075],[106.78677100000004,20.732610000000022],[106.78666000000004,20.73285500000003],[106.78633200000007,20.733592000000044],[106.78621800000008,20.733825000000024],[106.78592800000007,20.734420000000057],[106.78583200000008,20.73466200000007],[106.78582700000004,20.734880000000032],[106.78588500000006,20.735009000000048],[106.78601700000007,20.735092000000066],[106.78629900000004,20.735104000000035],[106.78684700000008,20.735091000000068],[106.78745700000007,20.73508400000003],[106.78754500000008,20.735105000000033],[106.78759200000007,20.735141000000056],[106.78759200000007,20.73516600000005],[106.78755700000005,20.735281000000043],[106.78748400000006,20.735457000000054],[106.78740300000004,20.735690000000034],[106.78722600000003,20.73619800000006],[106.78714400000007,20.73632800000007],[106.78702300000003,20.73640800000004],[106.78672700000004,20.73647600000004],[106.78617800000006,20.736489000000063],[106.78586600000006,20.736564000000044],[106.78556400000008,20.736782000000062],[106.78513100000004,20.73758200000003],[106.78510300000005,20.737798000000055],[106.78514200000006,20.73800700000004],[106.78524200000004,20.738118000000043],[106.78538300000008,20.73823900000008],[106.78591900000004,20.738432000000046],[106.78627800000004,20.738536000000067],[106.78641600000009,20.73860600000006],[106.78645600000004,20.738720000000058],[106.78642800000006,20.738909000000035],[106.78641300000004,20.73901500000005],[106.78623600000009,20.739468000000045],[106.78610000000003,20.739563000000032],[106.78590200000008,20.739565000000027],[106.78553500000004,20.739490000000046],[106.78533700000008,20.739499000000023],[106.78522400000008,20.739517000000035],[106.78482300000007,20.740058000000033],[106.78388000000007,20.741981000000067],[106.78322000000009,20.74296300000003],[106.78247200000004,20.744103000000052],[106.78169400000007,20.74537300000003],[106.78124900000006,20.74600300000003],[106.78098400000005,20.74637800000005],[106.78095900000005,20.746413000000075],[106.78085600000009,20.746687000000065],[106.78076800000008,20.747032000000047],[106.78064800000004,20.74721900000003],[106.78021100000007,20.747713000000033],[106.77920000000006,20.747302000000047],[106.77894700000007,20.747168000000045],[106.77887200000004,20.747258000000045]],[[106.79280600000004,20.69216700000004],[106.79277600000006,20.69224600000007],[106.79274900000007,20.69231300000007],[106.79270400000007,20.69238800000005],[106.79262700000004,20.69248700000003],[106.79256400000008,20.692566000000056],[106.79252400000007,20.692607000000066],[106.79245600000007,20.692670000000078],[106.79229800000007,20.69280100000003],[106.79220400000008,20.69286900000003],[106.79213400000003,20.692920000000072],[106.79204300000004,20.69298500000008],[106.79199000000006,20.693024000000037],[106.79189200000008,20.693080000000066],[106.79177100000004,20.69315000000006],[106.79166800000007,20.69320700000003],[106.79159700000008,20.693245000000047],[106.79156000000006,20.69326300000006],[106.79176200000006,20.69353700000005],[106.79183500000005,20.693636000000026],[106.79188900000008,20.693714000000057],[106.79197800000009,20.69382100000007],[106.79211700000008,20.693977000000075],[106.79220600000008,20.694080000000042],[106.79222100000004,20.694098000000054],[106.79225600000007,20.694112000000075],[106.79237000000006,20.69410400000004],[106.79247300000009,20.694078000000047],[106.79259000000008,20.694037000000037],[106.79265100000003,20.694000000000074],[106.79269800000009,20.69396900000004],[106.79273800000004,20.693932000000075],[106.79277300000007,20.693894000000057],[106.79279800000006,20.693853000000047],[106.79282100000006,20.693810000000042],[106.79285100000004,20.69370900000007],[106.79288900000006,20.693526000000077],[106.79293800000005,20.693116000000032],[106.79295500000006,20.692958000000033],[106.79297200000008,20.69280100000003],[106.79306000000008,20.692506000000037],[106.79314400000004,20.692354000000023],[106.79316400000005,20.692318000000057],[106.79320600000005,20.69226800000007],[106.79333700000007,20.692108000000076],[106.79339800000008,20.692021000000068],[106.79354700000005,20.691805000000045],[106.79360300000008,20.691704000000072],[106.79365900000005,20.691603000000043],[106.79371400000008,20.691437000000064],[106.79371800000007,20.69133000000005],[106.79368800000009,20.691175000000044],[106.79362300000008,20.69097000000005],[106.79355900000007,20.690770000000043],[106.79352500000005,20.690697000000057],[106.79340300000007,20.69043700000003],[106.79331200000007,20.69023500000003],[106.79322800000006,20.69005100000004],[106.79311300000006,20.68978500000003],[106.79307900000003,20.689711000000045],[106.79305600000004,20.689628000000027],[106.79303800000008,20.689535000000035],[106.79301500000008,20.68942000000004],[106.79299100000009,20.689362000000074],[106.79292600000008,20.689204000000075],[106.79281400000008,20.688976000000025],[106.79272400000008,20.68882300000007],[106.79265400000008,20.68871800000005],[106.79262500000004,20.68867400000005],[106.79261900000006,20.688664000000074],[106.79256100000003,20.68857900000006],[106.79251900000008,20.68849800000004],[106.79248100000007,20.688409000000036],[106.79246400000005,20.688370000000077],[106.79245200000008,20.68834400000003],[106.79244700000004,20.688333000000057],[106.79244200000005,20.688322000000028],[106.79238000000004,20.68821900000006],[106.79232300000007,20.68816400000003],[106.79229500000008,20.68813700000004],[106.79224900000008,20.688122000000078],[106.79218400000008,20.688112000000046],[106.79212600000005,20.688120000000026],[106.79205800000005,20.688146000000074],[106.79204600000008,20.688189000000023],[106.79205300000007,20.688267000000053],[106.79209800000007,20.68835100000007],[106.79214500000006,20.68844800000005],[106.79218400000008,20.688550000000077],[106.79223100000007,20.68867400000005],[106.79224000000005,20.688746000000037],[106.79224300000004,20.688825000000065],[106.79223400000006,20.68915000000004],[106.79222200000004,20.68927800000006],[106.79222100000004,20.689293000000077],[106.79219700000004,20.689427000000023],[106.79217100000005,20.689590000000067],[106.79216700000006,20.689652000000024],[106.79216700000006,20.68971700000003],[106.79216600000007,20.689786000000026],[106.79214100000007,20.689856000000077],[106.79207600000007,20.689945000000023],[106.79198100000008,20.690046000000052],[106.79191800000007,20.69009200000005],[106.79181200000005,20.690144000000032],[106.79171100000008,20.690183000000047],[106.79164700000007,20.690198000000066],[106.79157900000007,20.690211000000033],[106.79150300000003,20.690211000000033],[106.79141100000004,20.690210000000036],[106.79129700000004,20.69020100000006],[106.79120300000005,20.690188000000035],[106.79110900000006,20.690177000000062],[106.79103500000008,20.69016800000003],[106.79095900000004,20.69016000000005],[106.79090000000008,20.69016700000003],[106.79084000000006,20.690194000000076],[106.79078200000004,20.690236000000027],[106.79075200000005,20.690265000000068],[106.79073200000005,20.690308000000073],[106.79072000000008,20.690382000000056],[106.79071800000008,20.69044400000007],[106.79073700000004,20.69052300000004],[106.79076000000003,20.690585000000056],[106.79081500000007,20.690682000000038],[106.79084600000004,20.690725000000043],[106.79088700000005,20.69076700000005],[106.79092500000007,20.690796000000034],[106.79096900000008,20.690814000000046],[106.79101000000009,20.690833000000055],[106.79106500000006,20.690832000000057],[106.79112900000007,20.690832000000057],[106.79119000000009,20.690817000000038],[106.79126600000006,20.690785000000062],[106.79130600000008,20.690761000000066],[106.79137300000008,20.69070700000003],[106.79144200000007,20.690649000000064],[106.79158200000006,20.69049700000005],[106.79162500000007,20.690449000000058],[106.79166000000004,20.690410000000043],[106.79170300000004,20.690365000000043],[106.79175000000004,20.69032100000004],[106.79180600000007,20.690285000000074],[106.79188400000004,20.69025000000005],[106.79198000000008,20.690218000000073],[106.79207400000007,20.690198000000066],[106.79213200000004,20.69018600000004],[106.79218800000007,20.690185000000042],[106.79223900000005,20.690187000000037],[106.79231300000004,20.69021200000003],[106.79238700000008,20.690243000000066],[106.79246600000005,20.690292000000056],[106.79254800000007,20.690353000000073],[106.79263500000008,20.69042900000005],[106.79275400000006,20.690545000000043],[106.79282300000006,20.690635000000043],[106.79286000000008,20.69070400000004],[106.79289100000005,20.690778000000023],[106.79291400000005,20.690846000000022],[106.79294100000004,20.690928000000042],[106.79296300000004,20.690999000000033],[106.79297500000007,20.691040000000044],[106.79297900000006,20.691066000000035],[106.79298900000003,20.691145000000063],[106.79299500000008,20.69120900000007],[106.79298700000004,20.691381000000035],[106.79297300000007,20.691513000000043],[106.79295200000007,20.69163700000007],[106.79292300000009,20.691764000000035],[106.79289800000004,20.691855000000032],[106.79286900000005,20.69196800000003],[106.79280600000004,20.69216700000004]]]]}}]}